HELIOS 1B               
1 25977U 99064A   20343.01968191  .00000123  00000-0  22391-4 0  9992
2 25977  98.2988 144.1872 0002252 118.0930 242.0510 14.82515369400839
TERRA                   
1 25994U 99068A   20343.46435365  .00000089  00000-0  29816-4 0  9996
2 25994  98.1981  55.1847 0001126  95.7724 321.2680 14.57122486115651
SL-16 R/B               
1 26070U 00006B   20343.01301420 -.00000203  00000-0 -79300-4 0  9994
2 26070  70.9991 168.5377 0018220 225.7295 134.2334 14.15468636 77192
MTI                     
1 26102U 00014A   20343.26278065  .00010417  00000-0  14191-3 0  9996
2 26102  97.4814 234.0210 0005674 319.6905  40.3922 15.57722454151552
TITAN 4B R/B            
1 26474U 00047B   20343.28592737  .00000456  00000-0  50199-4 0  9992
2 26474  67.9937 317.1846 0055733   1.1058 359.0197 14.96039815105246
ENVISAT                 
1 27386U 02009A   20343.52706670  .00000047  00000-0  29040-4 0  9992
2 27386  98.1403 341.4494 0001325  89.2667  20.1531 14.38003393983636
IDEFIX & ARIANE 42P R/B 
1 27422U 02021B   20342.92743987  .00000040  00000-0  31919-4 0  9993
2 27422  98.3767 297.0107 0013361  79.1373 281.1312 14.29301752969948
AQUA                    
1 27424U 02022A   20343.49366936  .00000168  00000-0  47232-4 0  9990
2 27424  98.2097 281.5541 0001852 126.0351 341.8610 14.57114286989262
CZ-4B R/B               
1 27432U 02024C   20343.04434080 -.00000013  00000-0  17107-4 0  9996
2 27432  99.0902 348.2056 0051137  47.4713  17.7388 14.14101031958181
MIDORI II (ADEOS-II)    
1 27597U 02056A   20342.88060659  .00000080  00000-0  50032-4 0  9998
2 27597  98.5420 286.2696 0001038 136.0712 224.0551 14.27473430936553
H-2A R/B                
1 27601U 02056E   20343.09396677  .00000090  00000-0  46880-4 0  9997
2 27601  98.2086   9.7767 0073198 119.9762 301.4700 14.31989221939545
CZ-4B R/B               
1 28059U 03049C   20342.90534819  .00000062  00000-0  26834-4 0  9995
2 28059  98.4880 261.3692 0049560 329.5626  30.2694 14.52624613908015
CZ-2C R/B               
1 28222U 04012C   20343.09344227  .00000839  00000-0  53611-4 0  9996
2 28222  97.7019 306.3456 0047532 154.2531 336.2996 15.10594029912208
SL-16 R/B               
1 28353U 04021B   20343.20452939  .00000211  00000-0  13546-3 0  9990
2 28353  71.0003 294.9156 0003080  61.7158 298.4275 14.14234716851700
CZ-4B R/B               
1 28415U 04035C   20343.14558417  .00000581  00000-0  41918-4 0  9990
2 28415  97.5922  22.6145 0052785 119.3917 241.2596 15.06971362889794
CZ-2C R/B               
1 28480U 04046B   20343.03976517 -.00000020  00000-0  70727-5 0  9997
2 28480  98.0624   4.3844 0143055  71.1997 341.9159 14.25735727835155
ARIANE 5 R/B            
1 28499U 04049H   20343.25047493  .00000129  00000-0  23081-4 0  9995
2 28499  98.0628  85.6563 0093387  71.9066 311.8648 14.80071226861804
CZ-2D R/B               
1 28738U 05024B   20343.09076561  .00000758  00000-0  47488-4 0  9990
2 28738  97.3721 359.8151 0010541 308.9515  51.0776 15.12193330847646
SUZAKU (ASTRO-EII)      
1 28773U 05025A   20343.17611226  .00001685  00000-0  76754-4 0  9990
2 28773  31.3829 326.8354 0004566 158.3826 201.7014 15.17908281850370
ALOS (DAICHI)           
1 28931U 06002A   20343.50881045  .00000263  00000-0  60194-4 0  9999
2 28931  97.8640 320.8841 0000413  52.7231 307.4004 14.62771506793144
H-2A R/B                
1 28932U 06002B   20343.11069188  .00000656  00000-0  65721-4 0  9990
2 28932  98.3306 343.0347 0089681 113.2044 289.3388 14.92368098807046
AKARI (ASTRO-F)         
1 28939U 06005A   20343.07585089  .00005680  00000-0  14647-3 0  9990
2 28939  98.2478 337.4229 0092425  76.6427 284.5099 15.35346547807527
RESURS-DK 1             
1 29228U 06021A   20343.49949763  .00000284  00000-0  28660-4 0  9995
2 29228  69.9352 104.9082 0006260 224.2915 135.7745 15.02609488798898
GENESIS 1               
1 29252U 06029A   20342.84620938  .00001079  00000-0  62041-4 0  9992
2 29252  64.5227  94.3857 0019680 359.4818   0.6281 15.18358307794420
CZ-4B R/B               
1 29507U 06046C   20343.06264724  .00000455  00000-0  40243-4 0  9993
2 29507  97.7195   4.1801 0046583 304.0201  55.6603 15.00590353771408
CZ-2C R/B               
1 31114U 07010B   20343.14813048  .00000017  00000-0  26120-4 0  9992
2 31114  98.2400 184.1946 0060699 120.2312 240.4894 14.19339775707643
COSMO-SKYMED 1          
1 31598U 07023A   20343.45244722 -.00000229  00000-0 -22169-4 0  9999
2 31598  97.8828 164.0922 0001416  91.2533 268.8854 14.82155697730604
GENESIS 2               
1 31789U 07028A   20342.96509864  .00001320  00000-0  75034-4 0  9992
2 31789  64.5014 135.9499 0032857 225.6757 134.1672 15.17476875741501
COSMOS 2428             
1 31792U 07029A   20343.23631704 -.00000183  00000-0 -73501-4 0  9992
2 31792  70.8951 267.8754 0008134 191.5882 168.5052 14.12247466693409
SL-16 R/B               
1 31793U 07029B   20343.19585597 -.00000155  00000-0 -55998-4 0  9995
2 31793  70.9770 241.3890 0002582 282.2134 233.4829 14.14443012694296
KORONAS-FOTON           
1 33504U 09003A   20343.25987794  .00000938  00000-0  47203-4 0  9990
2 33504  82.4436  49.8721 0020009  41.5355 318.7394 15.15801478653817
H-2A R/B                
1 38341U 12025E   20343.06188556  .00000322  00000-0  45052-4 0  9997
2 38341  98.5163 149.5467 0056114  35.2897 325.2010 14.84125550463113
CUSAT 2 & FALCON 9 R/B  
1 39271U 13055G   20342.79011391  .00008501  00000-0  20154-3 0  9997
2 39271  80.9660  80.3091 0579852   8.3404 352.6925 14.50190019375837
SL-4 R/B                
1 39679U 14021B   20343.18170457  .00000808  00000-0  56574-4 0  9994
2 39679  51.6173  21.0850 0171228 187.6853 172.1487 15.06666114365217
ALOS-2                  
1 39766U 14029A   20343.53048189 -.00000039  00000-0  16504-5 0  9991
2 39766  97.9229  77.6405 0001399  86.8967 273.2405 14.79470212353434
CZ-2C R/B               
1 40306U 14071B   20343.41359106  .00005843  00000-0  11995-3 0  9995
2 40306  97.3462 291.7629 0012918 249.4398 110.5466 15.46335883340749
SL-27 R/B               
1 40354U 14084B   20343.20113163  .00001609  00000-0  39923-4 0  9998
2 40354  74.7384  28.5658 0035838 131.1445 229.2870 15.40600967334885
YAOGAN 29               
1 41038U 15069A   20343.54449073  .00000098  00000-0  19729-4 0  9994
2 41038  98.0248 331.3669 0002284  66.9453 293.2002 14.80474415272039
ASTRO-H (HITOMI)        
1 41337U 16012A   20343.16297639  .00000463  00000-0  30592-4 0  9999
2 41337  31.0068 348.3236 0012347 347.6333  12.3998 14.98752787263587
HXMT (HUIYAN)           
1 42758U 17034A   20343.49519448  .00000600  00000-0  50977-4 0  9995
2 42758  43.0164 161.1317 0009856  33.8775  62.5826 15.08988527192168
CZ-2C R/B               
1 43521U 18054D   20343.04453063  .00000964  00000-0  53734-4 0  9995
2 43521  35.1522 190.0167 0082792 209.5922 150.0090 15.11227370135425
AEOLUS                  
1 43600U 18066A   20343.47477118  .00040833  00000-0  15990-3 0  9990
2 43600  96.7188 347.2529 0004186  87.9930 272.1822 15.86885169132963
SAOCOM 1A               
1 43641U 18076A   20343.39327788  .00000059  00000-0  13990-4 0  9999
2 43641  97.8858 167.0360 0001412  80.4446 279.6919 14.82160925117361
CREW DRAGON DEMO-1 DEB  
1 44064U 19011B   20342.76195792  .00040224  00000-0  30892-3 0  9994
2 44064  51.6305 151.1208 0001834 329.9434  30.1458 15.71636798100092
CZ-2F R/B               
1 46390U 20063B   20343.19805440  .00041659  00000-0  19658-3 0  9993
2 46390  50.2025 279.7659 0011364 357.1193   2.9722 15.82498288 15000
2020-063G               
1 46395U 20063G   20343.22552734  .00018692  00000-0  10378-3 0  9998
2 46395  50.2053 280.7782 0009986 347.8408  12.2330 15.79477390 14989
